OBJECT_NAME,OBJECT_ID,EPOCH,MEAN_MOTION,ECCENTRICITY,INCLINATION,RA_OF_ASC_NODE,ARG_OF_PERICENTER,MEAN_ANOMALY,EPHEMERIS_TYPE,CLASSIFICATION_TYPE,NORAD_CAT_ID,ELEMENT_SET_NO,REV_AT_EPOCH,BSTAR,MEAN_MOTION_DOT,MEAN_MOTION_DDOT
STARLINK-11432 [DTC],2025-024D,2026-07-21T17:16:31.120896,15.70900159,.00013324,42.9994,93.7853,268.8066,91.2649,0,U,62882,999,8454,.11919425E-2,.155786E-2,0
STARLINK-11419 [DTC],2025-024E,2026-07-21T01:37:59.215008,15.70852728,.00020349,43.0009,97.4890,270.0277,90.0358,0,U,62883,999,8444,.31421136E-3,.40087E-3,0
STARLINK-11437 [DTC],2025-024F,2026-07-21T09:31:05.149632,15.70885576,.00006925,42.9996,95.6572,327.8265,32.2560,0,U,62884,999,8449,.14543673E-2,.19088E-2,0
STARLINK-11442 [DTC],2025-024G,2026-07-21T17:46:54.595488,15.71001334,.00036348,43.0008,93.0588,243.3938,116.6557,0,U,62885,999,8455,.22280531E-2,.297974E-2,0
STARLINK-11365 [DTC],2025-024H,2026-07-21T17:54:33.694848,15.71024799,.00006674,43.0002,93.1016,3.8704,356.2169,0,U,62886,999,8455,.19690776E-2,.262385E-2,0
STARLINK-11436 [DTC],2025-024J,2026-07-21T16:45:56.072160,15.70971495,.00018122,43.0000,93.6113,241.5597,118.5088,0,U,62887,999,8454,.16706152E-2,.220927E-2,0
STARLINK-11438 [DTC],2025-024K,2026-07-21T17:55:52.197888,15.70900790,.00020557,43.0008,93.1068,252.9719,107.0923,0,U,62888,999,8455,.16226398E-2,.213748E-2,0
STARLINK-11391 [DTC],2025-024L,2026-07-21T18:09:50.768640,15.70836835,.00030383,42.9970,93.1684,285.8315,74.2217,0,U,62889,999,8455,.1560179E-2,.204745E-2,0
STARLINK-11431 [DTC],2025-024M,2026-07-21T17:39:26.928576,15.70939720,.00017326,43.0003,93.9089,241.8194,118.2499,0,U,62890,999,8454,.11750724E-2,.153795E-2,0
STARLINK-11435 [DTC],2025-024N,2026-07-21T09:54:01.142208,15.70864323,.0001148,43.0002,95.7833,283.5132,76.5608,0,U,62891,999,8449,.12100879E-2,.157967E-2,0
STARLINK-32878,2025-024P,2026-07-21T12:43:56.412192,15.27609278,.000113,43.0014,289.6364,271.8703,88.2019,0,U,62892,999,8273,.511205E-3,.13844E-3,0
STARLINK-32892,2025-024Q,2026-07-21T14:23:39.016896,15.27595902,.00012756,43.0001,289.2916,275.9828,84.0878,0,U,62893,999,8274,.46506563E-3,.12564E-3,0
STARLINK-32909,2025-024R,2026-07-21T14:32:53.943360,15.27605268,.00017525,43.0024,289.3427,275.4697,84.5955,0,U,62894,999,8274,.69305538E-3,.18873E-3,0
STARLINK-32901,2025-024S,2026-07-21T15:26:20.977440,15.27603618,.00016088,43.0016,288.7585,286.2420,73.8255,0,U,62895,999,8275,.70538282E-3,.19213E-3,0
STARLINK-32890,2025-024T,2026-07-21T13:09:38.074176,15.27595576,.00010067,42.9979,288.9029,269.2539,90.8198,0,U,62896,999,8274,.48879351E-3,.13219E-3,0
STARLINK-32893,2025-024U,2026-07-21T05:35:30.503616,15.27591262,.0001258,43.0017,290.8340,207.8784,152.2000,0,U,62897,999,8269,.47380692E-3,.12803E-3,0
STARLINK-32902,2025-024V,2026-07-21T07:04:06.776832,15.27588631,.00011182,42.9995,290.4316,263.4106,96.6618,0,U,62898,999,8270,.37796667E-3,.10156E-3,0
STARLINK-32661,2025-024W,2026-07-21T13:57:44.609184,15.27594703,.00014035,43.0003,289.1553,277.1842,82.8850,0,U,62899,999,8274,.48367781E-3,.13077E-3,0
STARLINK-11552 [DTC],2025-027A,2026-07-22T04:27:21.208032,15.70916748,.00008951,42.9985,257.0763,230.3553,129.7236,0,U,62907,999,8434,.79674131E-3,.103397E-2,0
STARLINK-11561 [DTC],2025-027B,2026-07-21T12:33:32.435712,15.70856120,.00010183,43.0000,260.6934,301.8657,58.2111,0,U,62908,999,8420,.12777561E-2,.16695E-2,0
STARLINK-11567 [DTC],2025-027C,2026-07-21T05:56:54.038688,15.70857216,.00014587,43.0006,262.9521,255.5394,104.5312,0,U,62909,999,8415,.83859391E-3,.108649E-2,0
STARLINK-11569 [DTC],2025-027D,2026-07-21T11:17:16.145664,15.70853496,.00014055,43.0025,261.1635,277.2476,82.8232,0,U,62910,999,8419,.10109076E-2,.131408E-2,0
STARLINK-11537 [DTC],2025-027E,2026-07-21T11:32:34.724544,15.70727637,.00012641,43.0014,261.2483,299.6201,60.4541,0,U,62911,999,8423,.17436364E-2,.228461E-2,0
STARLINK-11565 [DTC],2025-027F,2026-07-21T13:49:48.472608,15.70866665,.00011292,42.9999,260.2250,265.8360,94.2379,0,U,62912,999,8421,.14742389E-2,.193398E-2,0
STARLINK-11564 [DTC],2025-027G,2026-07-22T04:34:59.732832,15.70883437,.00011894,42.9997,257.1195,265.4727,94.6005,0,U,62913,999,8430,.14513052E-2,.190448E-2,0
STARLINK-11566 [DTC],2025-027H,2026-07-21T13:27:03.652416,15.70897318,.0001124,43.0002,260.9930,309.1245,50.9523,0,U,62914,999,8424,.16413693E-2,.216251E-2,0
STARLINK-11555 [DTC],2025-027J,2026-07-22T03:12:24.261696,15.71056470,.00024155,43.0003,257.5500,317.1156,42.9523,0,U,62915,999,8433,.19694256E-2,.262794E-2,0
STARLINK-11430 [DTC],2025-027K,2026-07-21T10:39:13.476672,15.70869360,.00008059,42.9996,261.8418,200.4640,159.6196,0,U,62916,999,8422,.86916009E-3,.112738E-2,0
STARLINK-11560 [DTC],2025-027L,2026-07-21T05:18:40.404672,15.70832069,.00011459,42.9997,262.7339,224.6834,135.3941,0,U,62917,999,8415,.94337725E-3,.122354E-2,0
