STARLINK-11432 [DTC]    
1 62882U 25024D   26202.71980464  .00155786  00000+0  11919-2 0  9994
2 62882  42.9994  93.7853 0001332 268.8066  91.2649 15.70900159 84544
STARLINK-11419 [DTC]    
1 62883U 25024E   26202.06804647  .00040087  00000+0  31421-3 0  9999
2 62883  43.0009  97.4890 0002034 270.0277  90.0358 15.70852728 84446
STARLINK-11437 [DTC]    
1 62884U 25024F   26202.39658738  .00190880  00000+0  14544-2 0  9997
2 62884  42.9996  95.6572 0000692 327.8265  32.2560 15.70885576 84498
STARLINK-11442 [DTC]    
1 62885U 25024G   26202.74090967  .00297974  00000+0  22281-2 0  9990
2 62885  43.0008  93.0588 0003634 243.3938 116.6557 15.71001334 84555
STARLINK-11365 [DTC]    
1 62886U 25024H   26202.74622332  .00262385  00000+0  19691-2 0  9997
2 62886  43.0002  93.1016 0000667   3.8704 356.2169 15.71024799 84551
STARLINK-11436 [DTC]    
1 62887U 25024J   26202.69856565  .00220927  00000+0  16706-2 0  9999
2 62887  43.0000  93.6113 0001812 241.5597 118.5088 15.70971495 84548
STARLINK-11438 [DTC]    
1 62888U 25024K   26202.74713192  .00213748  00000+0  16226-2 0  9994
2 62888  43.0008  93.1068 0002055 252.9719 107.0923 15.70900790 84555
STARLINK-11391 [DTC]    
1 62889U 25024L   26202.75683760  .00204745  00000+0  15602-2 0  9997
2 62889  42.9970  93.1684 0003038 285.8315  74.2217 15.70836835 84554
STARLINK-11431 [DTC]    
1 62890U 25024M   26202.73572834  .00153795  00000+0  11751-2 0  9995
2 62890  43.0003  93.9089 0001732 241.8194 118.2499 15.70939720 84545
STARLINK-11435 [DTC]    
1 62891U 25024N   26202.41251322  .00157967  00000+0  12101-2 0  9992
2 62891  43.0002  95.7833 0001148 283.5132  76.5608 15.70864323 84496
STARLINK-32878          
1 62892U 25024P   26202.53051403  .00013844  00000+0  51120-3 0  9994
2 62892  43.0014 289.6364 0001130 271.8703  88.2019 15.27609278 82737
STARLINK-32892          
1 62893U 25024Q   26202.59975714  .00012564  00000+0  46507-3 0  9992
2 62893  43.0001 289.2916 0001275 275.9828  84.0878 15.27595902 82742
STARLINK-32909          
1 62894U 25024R   26202.60617990  .00018873  00000+0  69306-3 0  9995
2 62894  43.0024 289.3427 0001752 275.4697  84.5955 15.27605268 82743
STARLINK-32901          
1 62895U 25024S   26202.64329835  .00019213  00000+0  70538-3 0  9996
2 62895  43.0016 288.7585 0001608 286.2420  73.8255 15.27603618 82759
STARLINK-32890          
1 62896U 25024T   26202.54835734  .00013219  00000+0  48879-3 0  9999
2 62896  42.9979 288.9029 0001006 269.2539  90.8198 15.27595576 82742
STARLINK-32893          
1 62897U 25024U   26202.23299194  .00012803  00000+0  47381-3 0  9995
2 62897  43.0017 290.8340 0001258 207.8784 152.2000 15.27591262 82692
STARLINK-32902          
1 62898U 25024V   26202.29452288  .00010156  00000+0  37797-3 0  9996
2 62898  42.9995 290.4316 0001118 263.4106  96.6618 15.27588631 82700
STARLINK-32661          
1 62899U 25024W   26202.58176631  .00013077  00000+0  48368-3 0  9995
2 62899  43.0003 289.1553 0001403 277.1842  82.8850 15.27594703 82743
STARLINK-11552 [DTC]    
1 62907U 25027A   26203.18566213  .00103397  00000+0  79674-3 0  9993
2 62907  42.9985 257.0763 0000895 230.3553 129.7236 15.70916748 84343
STARLINK-11561 [DTC]    
1 62908U 25027B   26202.52329208  .00166950  00000+0  12778-2 0  9997
2 62908  43.0000 260.6934 0001018 301.8657  58.2111 15.70856120 84201
STARLINK-11567 [DTC]    
1 62909U 25027C   26202.24784767  .00108649  00000+0  83859-3 0  9992
2 62909  43.0006 262.9521 0001458 255.5394 104.5312 15.70857216 84155
STARLINK-11569 [DTC]    
1 62910U 25027D   26202.47032576  .00131408  00000+0  10109-2 0  9999
2 62910  43.0025 261.1635 0001405 277.2476  82.8232 15.70853496 84198
STARLINK-11537 [DTC]    
1 62911U 25027E   26202.48095746  .00228461  00000+0  17436-2 0  9995
2 62911  43.0014 261.2483 0001264 299.6201  60.4541 15.70727637 84233
STARLINK-11565 [DTC]    
1 62912U 25027F   26202.57625547  .00193398  00000+0  14742-2 0  9991
2 62912  42.9999 260.2250 0001129 265.8360  94.2379 15.70866665 84213
STARLINK-11564 [DTC]    
1 62913U 25027G   26203.19096913  .00190448  00000+0  14513-2 0  9999
2 62913  42.9997 257.1195 0001189 265.4727  94.6005 15.70883437 84300
STARLINK-11566 [DTC]    
1 62914U 25027H   26202.56045894  .00216251  00000+0  16414-2 0  9995
2 62914  43.0002 260.9930 0001124 309.1245  50.9523 15.70897318 84245
STARLINK-11555 [DTC]    
1 62915U 25027J   26203.13361414  .00262794  00000+0  19694-2 0  9995
2 62915  43.0003 257.5500 0002415 317.1156  42.9523 15.71056470 84334
STARLINK-11430 [DTC]    
1 62916U 25027K   26202.44390598  .00112738  00000+0  86916-3 0  9998
2 62916  42.9996 261.8418 0000805 200.4640 159.6196 15.70869360 84222
STARLINK-11560 [DTC]    
1 62917U 25027L   26202.22130098  .00122354  00000+0  94338-3 0  9994
2 62917  42.9997 262.7339 0001145 224.6834 135.3941 15.70832069 84154
